start=new Date('2021-08-29T00:00:00.000Z').valueOf();
sats=[{"RA_OF_ASC_NODE":"66.3061","SEMIMAJOR_AXIS":"6925.320","COUNTRY_CODE":"US","REV_AT_EPOCH":"2861","OBJECT_NAME":"STARLINK-2157","CENTER_NAME":"EARTH","GP_ID":"183639397","CLASSIFICATION_TYPE":"U","OBJECT_TYPE":"PAYLOAD","INCLINATION":"53.0557","SITE":"AFETR","TLE_LINE1":"1 47743U 21017X   21240.77652386  .00001610  00000-0  12694-3 0  9992","PERIAPSIS":"545.747","MEAN_ELEMENT_THEORY":"SGP4","OBJECT_ID":"2021-017X","REF_FRAME":"TEME","MEAN_ANOMALY":"263.0204","TLE_LINE2":"2 47743  53.0557  66.3061 0002076  97.1021 263.0204 15.06409473 28612","FILE":"3104555","PERIOD":"95.592","RCS_SIZE":"LARGE","MEAN_MOTION_DOT":"0.00001610","ELEMENT_SET_NO":"999","ECCENTRICITY":"0.00020760","MEAN_MOTION_DDOT":"0.0000000000000","BSTAR":"0.00012694000000","DECAY_DATE":null,"TIME_SYSTEM":"UTC","APOAPSIS":"548.622","EPHEMERIS_TYPE":"0","EPOCH":"2021-08-28T18:38:11.661504","MEAN_MOTION":"15.06409473","ARG_OF_PERICENTER":"97.1021","LAUNCH_DATE":"2021-03-04","NORAD_CAT_ID":"47743"},{"NORAD_CAT_ID":"47744","LAUNCH_DATE":"2021-03-04","ARG_OF_PERICENTER":"96.3856","MEAN_MOTION":"15.06407632","EPOCH":"2021-08-28T21:17:25.554048","EPHEMERIS_TYPE":"0","APOAPSIS":"548.613","TIME_SYSTEM":"UTC","DECAY_DATE":null,"BSTAR":"0.00014519000000","MEAN_MOTION_DDOT":"0.0000000000000","ECCENTRICITY":"0.00020540","ELEMENT_SET_NO":"999","MEAN_MOTION_DOT":"0.00001882","PERIOD":"95.592","RCS_SIZE":"LARGE","FILE":"3104555","TLE_LINE2":"2 47744  53.0573  65.8159 0002054  96.3856 263.7367 15.06407632 28652","MEAN_ANOMALY":"263.7367","REF_FRAME":"TEME","OBJECT_ID":"2021-017Y","MEAN_ELEMENT_THEORY":"SGP4","PERIAPSIS":"545.768","TLE_LINE1":"1 47744U 21017Y   21240.88710132  .00001882  00000-0  14519-3 0  9998","SITE":"AFETR","INCLINATION":"53.0573","OBJECT_TYPE":"PAYLOAD","GP_ID":"183637650","CLASSIFICATION_TYPE":"U","REV_AT_EPOCH":"2865","OBJECT_NAME":"STARLINK-2158","CENTER_NAME":"EARTH","SEMIMAJOR_AXIS":"6925.325","COUNTRY_CODE":"US","RA_OF_ASC_NODE":"65.8159"},{"FILE":"3104555","PERIOD":"95.592","RCS_SIZE":"LARGE","MEAN_MOTION_DOT":"0.00000335","ELEMENT_SET_NO":"999","MEAN_ANOMALY":"274.5760","TLE_LINE2":"2 47745  53.0567  75.9974 0002225  85.5483 274.5760 15.06404715 28453","ARG_OF_PERICENTER":"85.5483","LAUNCH_DATE":"2021-03-04","NORAD_CAT_ID":"47745","MEAN_MOTION_DDOT":"0.0000000000000","ECCENTRICITY":"0.00022250","BSTAR":"0.00004141000000","DECAY_DATE":null,"TIME_SYSTEM":"UTC","APOAPSIS":"548.740","EPHEMERIS_TYPE":"0","EPOCH":"2021-08-28T20:23:01.853664","MEAN_MOTION":"15.06404715","OBJECT_NAME":"STARLINK-2159","REV_AT_EPOCH":"2845","CENTER_NAME":"EARTH","GP_ID":"183638400","CLASSIFICATION_TYPE":"U","RA_OF_ASC_NODE":"75.9974","SEMIMAJOR_AXIS":"6925.334","COUNTRY_CODE":"US","MEAN_ELEMENT_THEORY":"SGP4","OBJECT_ID":"2021-017Z","REF_FRAME":"TEME","OBJECT_TYPE":"PAYLOAD","INCLINATION":"53.0567","TLE_LINE1":"1 47745U 21017Z   21240.84932701  .00000335  00000-0  41410-4 0  9996","SITE":"AFETR","PERIAPSIS":"545.658"},{"COUNTRY_CODE":"US","SEMIMAJOR_AXIS":"6925.320","RA_OF_ASC_NODE":"76.0159","CLASSIFICATION_TYPE":"U","GP_ID":"183639148","REV_AT_EPOCH":"2844","OBJECT_NAME":"STARLINK-2160","CENTER_NAME":"EARTH","PERIAPSIS":"545.849","TLE_LINE1":"1 47746U 21017AA  21240.84195657  .00001614  00000-0  12719-3 0  9998","SITE":"AFETR","INCLINATION":"53.0552","OBJECT_TYPE":"PAYLOAD","REF_FRAME":"TEME","OBJECT_ID":"2021-017AA","MEAN_ELEMENT_THEORY":"SGP4","TLE_LINE2":"2 47746  53.0552  76.0159 0001930  85.2833 274.8377 15.06409269 28448","MEAN_ANOMALY":"274.8377","ELEMENT_SET_NO":"999","MEAN_MOTION_DOT":"0.00001614","PERIOD":"95.592","RCS_SIZE":"LARGE","FILE":"3104555","MEAN_MOTION":"15.06409269","EPOCH":"2021-08-28T20:12:25.047648","TIME_SYSTEM":"UTC","APOAPSIS":"548.522","EPHEMERIS_TYPE":"0","DECAY_DATE":null,"BSTAR":"0.00012719000000","ECCENTRICITY":"0.00019300","MEAN_MOTION_DDOT":"0.0000000000000","NORAD_CAT_ID":"47746","LAUNCH_DATE":"2021-03-04","ARG_OF_PERICENTER":"85.2833"},{"EPOCH":"2021-08-28T20:08:26.325312","MEAN_MOTION":"15.06399352","DECAY_DATE":null,"EPHEMERIS_TYPE":"0","APOAPSIS":"548.647","TIME_SYSTEM":"UTC","BSTAR":"-0.00001179500000","MEAN_MOTION_DDOT":"0.0000000000000","ECCENTRICITY":"0.00020670","NORAD_CAT_ID":"47747","LAUNCH_DATE":"2021-03-04","ARG_OF_PERICENTER":"103.7239","TLE_LINE2":"2 47747  53.0570  66.0312 0002067 103.7239 256.3980 15.06399352 28623","MEAN_ANOMALY":"256.3980","ELEMENT_SET_NO":"999","MEAN_MOTION_DOT":"-0.00000457","RCS_SIZE":"LARGE","PERIOD":"95.592","FILE":"3104555","SITE":"AFETR","TLE_LINE1":"1 47747U 21017AB  21240.83919358 -.00000457  00000-0 -11795-4 0  9990","PERIAPSIS":"545.784","INCLINATION":"53.0570","OBJECT_TYPE":"PAYLOAD","REF_FRAME":"TEME","OBJECT_ID":"2021-017AB","MEAN_ELEMENT_THEORY":"SGP4","COUNTRY_CODE":"US","SEMIMAJOR_AXIS":"6925.351","RA_OF_ASC_NODE":"66.0312","GP_ID":"183638898","CLASSIFICATION_TYPE":"U","REV_AT_EPOCH":"2862","OBJECT_NAME":"STARLINK-2161","CENTER_NAME":"EARTH"},{"SEMIMAJOR_AXIS":"6925.258","COUNTRY_CODE":"US","RA_OF_ASC_NODE":"65.7665","GP_ID":"183638150","CLASSIFICATION_TYPE":"U","OBJECT_NAME":"STARLINK-2162","REV_AT_EPOCH":"2860","CENTER_NAME":"EARTH","INCLINATION":"53.0576","TLE_LINE1":"1 47748U 21017AC  21240.89814561  .00003818  00000-0  27487-3 0  9993","SITE":"AFETR","PERIAPSIS":"545.700","OBJECT_TYPE":"PAYLOAD","REF_FRAME":"TEME","MEAN_ELEMENT_THEORY":"SGP4","OBJECT_ID":"2021-017AC","TLE_LINE2":"2 47748  53.0576  65.7665 0002055 109.6735 250.4476 15.06429469 28606","MEAN_ANOMALY":"250.4476","MEAN_MOTION_DOT":"0.00003818","ELEMENT_SET_NO":"999","FILE":"3104555","PERIOD":"95.590","RCS_SIZE":"LARGE","DECAY_DATE":null,"APOAPSIS":"548.546","TIME_SYSTEM":"UTC","EPHEMERIS_TYPE":"0","EPOCH":"2021-08-28T21:33:19.780704","MEAN_MOTION":"15.06429469","MEAN_MOTION_DDOT":"0.0000000000000","ECCENTRICITY":"0.00020550","BSTAR":"0.00027487000000","NORAD_CAT_ID":"47748","ARG_OF_PERICENTER":"109.6735","LAUNCH_DATE":"2021-03-04"},{"RA_OF_ASC_NODE":"66.2891","COUNTRY_CODE":"US","SEMIMAJOR_AXIS":"6925.323","REV_AT_EPOCH":"2858","OBJECT_NAME":"STARLINK-2163","CENTER_NAME":"EARTH","GP_ID":"183637901","CLASSIFICATION_TYPE":"U","OBJECT_TYPE":"PAYLOAD","TLE_LINE1":"1 47749U 21017AD  21240.78020679  .00001111  00000-0  93476-4 0  9997","SITE":"AFETR","PERIAPSIS":"545.756","INCLINATION":"53.0557","OBJECT_ID":"2021-017AD","MEAN_ELEMENT_THEORY":"SGP4","REF_FRAME":"TEME","MEAN_ANOMALY":"263.9915","TLE_LINE2":"2 47749  53.0557  66.2891 0002067  96.1309 263.9915 15.06408459 28583","RCS_SIZE":"LARGE","PERIOD":"95.592","FILE":"3104555","ELEMENT_SET_NO":"999","MEAN_MOTION_DOT":"0.00001111","BSTAR":"0.00009347600000","MEAN_MOTION_DDOT":"0.0000000000000","ECCENTRICITY":"0.00020670","EPOCH":"2021-08-28T18:43:29.866656","MEAN_MOTION":"15.06408459","DECAY_DATE":null,"EPHEMERIS_TYPE":"0","APOAPSIS":"548.619","TIME_SYSTEM":"UTC","LAUNCH_DATE":"2021-03-04","ARG_OF_PERICENTER":"96.1309","NORAD_CAT_ID":"47749"},{"RCS_SIZE":"LARGE","PERIOD":"95.592","FILE":"3104555","ELEMENT_SET_NO":"999","MEAN_MOTION_DOT":"0.00000763","MEAN_ANOMALY":"249.9367","TLE_LINE2":"2 47750  53.0565  65.7982 0002325 110.1872 249.9367 15.06403634 28606","LAUNCH_DATE":"2021-03-04","ARG_OF_PERICENTER":"110.1872","NORAD_CAT_ID":"47750","BSTAR":"0.00007013000000","MEAN_MOTION_DDOT":"0.0000000000000","ECCENTRICITY":"0.00023250","EPOCH":"2021-08-28T21:22:44.063328","MEAN_MOTION":"15.06403634","DECAY_DATE":null,"APOAPSIS":"548.813","TIME_SYSTEM":"UTC","EPHEMERIS_TYPE":"0","OBJECT_NAME":"STARLINK-2164","REV_AT_EPOCH":"2860","CENTER_NAME":"EARTH","GP_ID":"183638649","CLASSIFICATION_TYPE":"U","RA_OF_ASC_NODE":"65.7982","SEMIMAJOR_AXIS":"6925.337","COUNTRY_CODE":"US","OBJECT_ID":"2021-017AE","MEAN_ELEMENT_THEORY":"SGP4","REF_FRAME":"TEME","OBJECT_TYPE":"PAYLOAD","TLE_LINE1":"1 47750U 21017AE  21240.89078777  .00000763  00000-0  70130-4 0  9997","SITE":"AFETR","PERIAPSIS":"545.592","INCLINATION":"53.0565"},{"INCLINATION":"53.0436","PERIAPSIS":"546.190","TLE_LINE1":"1 47751U 21017AF  21240.85485452  .00006225  00000-0  43612-3 0  9999","SITE":"AFETR","OBJECT_TYPE":"PAYLOAD","REF_FRAME":"TEME","MEAN_ELEMENT_THEORY":"SGP4","OBJECT_ID":"2021-017AF","COUNTRY_CODE":"US","SEMIMAJOR_AXIS":"6925.265","RA_OF_ASC_NODE":"56.0144","GP_ID":"183639398","CLASSIFICATION_TYPE":"U","REV_AT_EPOCH":"2874","OBJECT_NAME":"STARLINK-2168","CENTER_NAME":"EARTH","APOAPSIS":"548.071","TIME_SYSTEM":"UTC","EPHEMERIS_TYPE":"0","DECAY_DATE":null,"MEAN_MOTION":"15.06427236","EPOCH":"2021-08-28T20:30:59.430528","ECCENTRICITY":"0.00013580","MEAN_MOTION_DDOT":"0.0000000000000","BSTAR":"0.00043612000000","NORAD_CAT_ID":"47751","ARG_OF_PERICENTER":"88.9825","LAUNCH_DATE":"2021-03-04","TLE_LINE2":"2 47751  53.0436  56.0144 0001358  88.9825 271.1320 15.06427236 28747","MEAN_ANOMALY":"271.1320","MEAN_MOTION_DOT":"0.00006225","ELEMENT_SET_NO":"999","FILE":"3104555","RCS_SIZE":"LARGE","PERIOD":"95.590"},{"GP_ID":"183637651","CLASSIFICATION_TYPE":"U","CENTER_NAME":"EARTH","REV_AT_EPOCH":"2858","OBJECT_NAME":"STARLINK-2169","COUNTRY_CODE":"US","SEMIMAJOR_AXIS":"6925.340","RA_OF_ASC_NODE":"70.8108","REF_FRAME":"TEME","MEAN_ELEMENT_THEORY":"SGP4","OBJECT_ID":"2021-017AG","INCLINATION":"53.0574","PERIAPSIS":"545.816","SITE":"AFETR","TLE_LINE1":"1 47752U 21017AG  21240.88848862 -.00000430  00000-0 -99601-5 0  9996","OBJECT_TYPE":"PAYLOAD","MEAN_MOTION_DOT":"-0.00000430","ELEMENT_SET_NO":"999","FILE":"3104555","PERIOD":"95.592","RCS_SIZE":"LARGE","TLE_LINE2":"2 47752  53.0574  70.8108 0002007  93.5166 266.6052 15.06402645 28587","MEAN_ANOMALY":"266.6052","NORAD_CAT_ID":"47752","ARG_OF_PERICENTER":"93.5166","LAUNCH_DATE":"2021-03-04","APOAPSIS":"548.595","TIME_SYSTEM":"UTC","EPHEMERIS_TYPE":"0","DECAY_DATE":null,"MEAN_MOTION":"15.06402645","EPOCH":"2021-08-28T21:19:25.416768","MEAN_MOTION_DDOT":"0.0000000000000","ECCENTRICITY":"0.00020070","BSTAR":"-0.00000996010000"}];
